STARLINK-5556           
1 55385U 23013BG  25044.91431648  .00000662  00000+0  64110-4 0  9995
2 55385  43.0028 265.2900 0001157 271.7680  88.3030 15.02534051113085
STARLINK-5555           
1 55386U 23013BH  25044.98412132  .00000122  00000+0  24135-4 0  9994
2 55386  43.0029 264.9547 0001366 266.5450  93.5236 15.02535023113524
STARLINK-5077           
1 55391U 23014A   25044.91668981 -.00034337  00000+0 -17328-2 0  9990
2 55391  70.0011 322.3331 0002853 273.0040 312.1167 15.17064639112945
STARLINK-5085           
1 55392U 23014B   25045.09498137  .00003443  00000+0  29601-3 0  9995
2 55392  70.0005 304.1311 0002539 276.2691  83.8178 14.98354755113408
STARLINK-4786           
1 55393U 23014C   25045.18286200  .00001654  00000+0  14635-3 0  9995
2 55393  70.0007 323.9190 0002844 269.6841  90.3992 14.98336346112926
STARLINK-5274           
1 55395U 23014E   25045.17451492  .00000742  00000+0  70005-4 0  9994
2 55395  70.0000 323.8720 0002764 268.5829  91.5013 14.98331166112926
STARLINK-5283           
1 55396U 23014F   25045.17869003  .00000901  00000+0  83317-4 0  9993
2 55396  70.0009 323.8926 0002886 273.7030  86.3799 14.98331077112925
STARLINK-5224           
1 55397U 23014G   25045.14092936  .00004614  00000+0  39424-3 0  9998
2 55397  69.9994 304.2783 0003067 267.5938  92.4870 14.98330899113403
STARLINK-5275           
1 55398U 23014H   25045.12862284  .00001043  00000+0  95218-4 0  9995
2 55398  70.0004 324.1171 0002909 272.6057  87.4769 14.98334613112918
STARLINK-5276           
1 55399U 23014J   25045.12027539 -.00001342  00000+0 -10465-3 0  9996
2 55399  70.0005 324.0857 0002856 267.8921  92.1911 14.98339447112919
STARLINK-5632           
1 55400U 23014K   25045.13697265  .00000802  00000+0  75003-4 0  9997
2 55400  70.0011 324.1426 0002776 268.7982  91.2859 14.98334590112915
STARLINK-5076           
1 55401U 23014L   25044.92417419  .00002559  00000+0  22214-3 0  9991
2 55401  70.0027 324.6075 0002789 264.2219  95.8622 14.98339483113821
STARLINK-5071           
1 55402U 23014M   25045.14531915  .00001001  00000+0  91642-4 0  9998
2 55402  70.0010 324.1786 0002563 272.4595  87.6271 14.98337624112919
STARLINK-5597           
1 55403U 23014N   25045.13280130  .00000983  00000+0  90168-4 0  9998
2 55403  70.0007 324.1324 0002662 270.4465  89.6389 14.98333248112918
STARLINK-5607           
1 55404U 23014P   25044.95339848 -.00005355  00000+0 -44131-3 0  9997
2 55404  70.0017 324.7154 0002535 254.7813 105.3066 14.98334466113820
STARLINK-5623           
1 55405U 23014Q   25044.94087114 -.00000832  00000+0 -61924-4 0  9998
2 55405  70.0010 324.6681 0002835 275.2650  84.8186 14.98331654113828
STARLINK-5630           
1 55406U 23014R   25045.15784215  .00001236  00000+0  11131-3 0  9990
2 55406  70.0011 324.2243 0002701 271.5786  88.5064 14.98335350112913
STARLINK-5019           
1 55407U 23014S   25045.14950836  .00001172  00000+0  10597-3 0  9998
2 55407  70.0011 324.1939 0002751 267.5548  92.5296 14.98331934112917
STARLINK-5092           
1 55408U 23014T   25045.16201880  .00001152  00000+0  10430-3 0  9993
2 55408  70.0008 324.2398 0002806 269.5230  90.5608 14.98334694112916
STARLINK-5047           
1 55409U 23014U   25045.25002315  .01168756  00000+0  66631-1 0  9993
2 55409  70.0021 323.8758 0003154 275.7145 326.7778 15.09577849112936
STARLINK-5633           
1 55410U 23014V   25045.12884889  .00000567  00000+0  55300-4 0  9993
2 55410  70.0012 343.9881 0002796 272.7028  87.3811 14.98334269113366
STARLINK-5605           
1 55411U 23014W   25045.16619264  .00003543  00000+0  30452-3 0  9998
2 55411  70.0023 324.2547 0002710 271.1629  88.9220 14.98339521112913
STARLINK-5033           
1 55412U 23014X   25045.25002315  .01252766  00000+0  30824-1 0  9997
2 55412  70.0020 340.5008 0003254 269.4316  25.0546 15.37821313112520
STARLINK-5060           
1 55413U 23014Y   25045.12467604 -.00000428  00000+0 -28058-4 0  9996
2 55413  70.0017 343.9739 0002678 259.6090 100.4768 14.98326444112428
STARLINK-5620           
1 55414U 23014Z   25045.14137050  .00000444  00000+0  45026-4 0  9998
2 55414  70.0012 344.0334 0002756 270.4807  89.6036 14.98332859113368
STARLINK-5618           
1 55415U 23014AA  25045.25002315  .01261160  00000+0  72069-2 0  9996
2 55415  70.0018 338.1035 0003604 269.5407 339.7366 15.76214986112579
STARLINK-5624           
1 55416U 23014AB  25045.14975162 -.00001818  00000+0 -14472-3 0  9992
2 55416  70.0017 344.0636 0002547 264.9097  95.1771 14.98298230112425
STARLINK-5616           
1 55417U 23014AC  25045.13337912 -.00054871  00000+0 -45858-2 0  9995
2 55417  70.0012 344.0067 0002661 259.6501 100.4358 14.98675247113369
STARLINK-5030           
1 55418U 23014AD  25045.15807064  .00002311  00000+0  20135-3 0  9990
2 55418  70.0005 344.0912 0002791 269.6089  90.4750 14.98342366112420
STARLINK-5629           
1 55419U 23014AE  25044.94526768 -.00000040  00000+0  44366-5 0  9998
2 55419  70.0013 344.5528 0002700 268.4348  91.6501 14.98333416113337
STARLINK-5604           
1 55420U 23014AF  25045.11588268  .00000559  00000+0  54670-4 0  9995
2 55420  69.9999 304.2137 0002472 261.5683  98.5196 14.98331030113404
STARLINK-5598           
1 55421U 23014AG  25044.95363038 -.00000500  00000+0 -34100-4 0  9997
2 55421  70.0005 344.5812 0002763 271.1920  88.8923 14.98322468113334
STARLINK-5006           
1 55422U 23014AH  25044.99792531  .00262741  00000+0  20216-1 0  9991
2 55422  70.0009 344.3307 0011296 264.1945  95.7927 15.00157120112409
STARLINK-5068           
1 55423U 23014AJ  25045.17059991  .00000345  00000+0  36745-4 0  9996
2 55423  70.0003 344.1328 0003008 268.2231  91.8583 14.98330291112425
STARLINK-5615           
1 55425U 23014AL  25045.16224630  .00003584  00000+0  30793-3 0  9995
2 55425  70.0009 344.1069 0003603 274.0779  85.9968 14.98342126112429
STARLINK-5638           
1 55426U 23014AM  25045.17893939  .00000940  00000+0  86516-4 0  9999
2 55426  70.0008 344.1633 0002153 273.4202  86.6711 14.98332788112426
STARLINK-5073           
1 55427U 23014AN  25045.16641526  .00000963  00000+0  88508-4 0  9990
2 55427  70.0006 344.1209 0002911 269.7091  90.3734 14.98336448112424
STARLINK-5064           
1 55428U 23014AP  25045.18728889  .00000596  00000+0  57759-4 0  9997
2 55428  70.0012 344.1931 0002826 270.1322  89.9513 14.98331647112427
STARLINK-5645           
1 55429U 23014AQ  25045.17478397 -.00001344  00000+0 -10492-3 0  9999
2 55429  70.0011 344.1496 0002340 270.2530  89.8361 14.98315665112428
STARLINK-5642           
1 55430U 23014AR  25044.96635914  .00000160  00000+0  21203-4 0  9993
2 55430  70.0005   4.4829 0002897 270.1047  89.9780 14.98332280112842
STARLINK-5643           
1 55431U 23014AS  25045.18311238  .00000864  00000+0  80164-4 0  9991
2 55431  70.0009 344.1774 0002266 270.2644  89.8256 14.98336753112424
STARLINK-5637           
1 55432U 23014AT  25045.17515502  .00001787  00000+0  15747-3 0  9990
2 55432  70.0021   4.0086 0003134 275.4031  84.6771 14.98347637111932
STARLINK-5570           
1 55433U 23014AU  25045.16246515  .00000529  00000+0  52137-4 0  9993
2 55433  70.0004   3.9638 0002930 270.4485  89.6338 14.98330628111932
STARLINK-5621           
1 55434U 23014AV  25044.84953886 -.00000121  00000+0 -23271-5 0  9992
2 55434  70.0011   4.8811 0002615 274.1512  85.9349 14.98329519112823
STARLINK-5626           
1 55435U 23014AW  25044.97470888  .00001351  00000+0  12101-3 0  9995
2 55435  70.0004   4.5149 0002909 271.3369  88.7456 14.98334239112849
STARLINK-5640           
1 55436U 23014AX  25044.58667088 -.00000029  00000+0  53448-5 0  9996
2 55436  70.0008   5.5679 0002924 270.5385  89.5439 14.98330609111845
STARLINK-5074           
1 55438U 23014AZ  25045.17034191  .00001123  00000+0  10185-3 0  9991
2 55438  70.0008 323.8795 0002852 274.3935  85.6898 14.98331825112922
STARLINK-5634           
1 55439U 23014BA  25045.12493548  .00005104  00000+0  43544-3 0  9990
2 55439  70.0013   4.2387 0002542 266.1700  93.9168 14.98309401111927
STARLINK-5699           
1 55449U 23015A   25045.02493962 -.00000407  00000+0 -15043-4 0  9998
2 55449  43.0029 278.3279 0001302 273.3496  86.7197 15.02531177112289
STARLINK-5686           
1 55450U 23015B   25044.69588949  .00004230  00000+0  32809-3 0  9996
2 55450  43.0030 280.1593 0001251 275.2698  84.8001 15.02530057113179
STARLINK-5656           
1 55451U 23015C   25045.02161183 -.00000476  00000+0 -20138-4 0  9995
2 55451  43.0036 278.3044 0001297 266.7634  93.3060 15.02534451112284
STARLINK-5683           
1 55452U 23015D   25044.95068859  .00000735  00000+0  69498-4 0  9991
2 55452  43.0031 278.6301 0001103 277.5739  82.4978 15.02535551112279
STARLINK-5684           
1 55453U 23015E   25044.94736218 -.00002841  00000+0 -19515-3 0  9998
2 55453  43.0059 278.6044 0002384 250.8013 109.2571 15.02554783112270
STARLINK-5636           
1 55454U 23015F   25044.34239765  .00000193  00000+0  29346-4 0  9998
2 55454  43.0027 281.7961 0001350 275.4983  84.5706 15.02538027112188
STARLINK-5680           
1 55455U 23015G   25044.88754462  .00001529  00000+0  12822-3 0  9998
2 55455  43.0016 279.0176 0001384 266.0624  94.0060 15.02538890112266
STARLINK-5058           
1 55456U 23015H   25045.07477295 -.00000093  00000+0  81765-5 0  9997
2 55456  43.0034 277.8407 0001126 275.8025  84.2689 15.02535030112112
STARLINK-5682           
1 55457U 23015J   25044.67812181  .00000609  00000+0  60132-4 0  9996
2 55457  43.0032 280.0246 0001465 263.0669  97.0007 15.02532132112236
STARLINK-5020           
1 55458U 23015K   25044.99719042  .00001031  00000+0  91355-4 0  9995
2 55458  43.0033 278.1165 0001303 266.0340  94.0353 15.02535724112282
STARLINK-5669           
1 55459U 23015L   25045.00163386 -.00000556  00000+0 -26061-4 0  9998
2 55459  43.0028 278.1528 0001252 268.7503  91.3196 15.02533757112282
STARLINK-5678           
1 55460U 23015M   25044.99830183  .00000307  00000+0  37782-4 0  9997
2 55460  43.0031 278.1269 0001290 260.5199  99.5498 15.02536164112283
